0 DELTA 2 DEB
1 38674U 06042D   13273.27132036  .00016424 -92393-7  19585-3 0  1321
2 38674 039.9916 270.9791 5333833 341.1304 004.7370 05.20939523 71722
0 DELTA 2 DEB
1 38674U 06042D   13273.27132036  .00029043 -91375-7  27148-3 0  1268
2 38674 039.8685 271.0171 5334247 341.2394 004.2059 05.21694512 71735
0 DELTA 2 DEB
1 38674U 06042D   13273.27132036  .00029685 -95115-7  22289-3 0  1302
2 38674 040.0478 270.7241 5338139 341.1004 005.0403 05.21737048 71727
0 DELTA 2 DEB
1 38674U 06042D   13285.91180674 -.00018280 -21136-6 -11365-3 0  1278
2 38674 039.8370 259.2857 5364159 355.4154 189.2375 05.18002650 72380
